MIRATA                  
1 43015U 17073C   18275.37605200  .00001138  00000-0  95852-4 0  9993
2 43015  97.7060 201.9135 0255934 282.6521  74.6188 14.78395705 46978
MAKERSAT 0              
1 43016U 17073D   18275.76846695  .00000731  00000-0  63479-4 0  9990
2 43016  97.7091 202.4432 0257482 281.4335  75.8061 14.78327233 47020
ASTERIA                 
1 43020U 98067NH  18275.22514892  .00017301  00000-0  20245-3 0  9993
2 43020  51.6410 195.7503 0002164 189.7615 170.3337 15.61662578 49204
DELLINGR (RBLE)         
1 43021U 98067NJ  18275.81196388  .00007930  00000-0  10661-3 0  9993
2 43021  51.6392 195.8729 0002166 183.3826 176.7152 15.58910215 49251
OSIRIS-3U               
1 43027U 98067NL  18275.83957271  .00047114  00000-0  36750-3 0  9992
2 43027  51.6353 183.2390 0003674 166.8486 193.2609 15.71189976 49306
AEROCUBE 7B             
1 43042U 17071F   18275.51110123  .00004310  00000-0  11807-3 0  9994
2 43042  51.6380 238.4280 0004411 300.3946  59.6602 15.39488700 46137
AEROCUBE 7C             
1 43043U 17071G   18275.38123375  .00004412  00000-0  12062-3 0  9990
2 43043  51.6382 239.0680 0004529 301.6531  58.4012 15.39490948 46088
CHEFSAT                 
1 43044U 17071H   18275.44412111  .00007543  00000-0  19066-3 0  9996
2 43044  51.6388 237.2796 0004417 302.1843  57.8713 15.40811749 46114
ASGARDIA 1              
1 43049U 17071N   18275.48312329  .00003148  00000-0  88620-4 0  9995
2 43049  51.6385 238.2585 0002239 331.5204  28.5658 15.39608835 46100
ISARA                   
1 43050U 17071P   18275.52441307  .00005733  00000-0  14849-3 0  9994
2 43050  51.6380 237.0528 0002095 330.8999  29.1868 15.40560562 46122
FAUNA                   
1 43052U 17071R   18275.33139547  .00003635  00000-0  10023-3 0  9994
2 43052  51.6386 238.7571 0002095 327.7221  32.3635 15.39775412 46071
CORVUS BC3              
1 43118U 18004H   18275.61163273  .00000803  00000-0  37780-4 0  9992
2 43118  97.5222 338.3579 0012235  81.3278 278.9343 15.22417726 40058
MICROMAS-2A             
1 43131U 18004W   18275.59192343  .00001840  00000-0  80841-4 0  9992
2 43131  97.5235 338.5638 0011361  84.2709 275.9823 15.23162832 40062
GOMX4-B                 
1 43196U 18015E   18275.51762744  .00000376  00000-0  18502-4 0  9993
2 43196  97.3595  42.3374 0019511 136.5004 223.7775 15.23757427 36872
GOMX4-A                 
1 43197U 18015F   18275.86023350  .00000739  00000-0  33481-4 0  9991
2 43197  97.3613  42.6771 0020323 135.9045 324.4369 15.23776745 36938
1KUNS-PF                
1 43466U 98067NP  18275.82950637  .00014834  00000-0  20091-3 0  9991
2 43466  51.6388 199.7300 0001376 114.6344 245.4792 15.57926238 22460
UBAKUSAT                
1 43467U 98067NQ  18275.78901290  .00011292  00000-0  15842-3 0  9991
2 43467  51.6390 200.2132 0002999 153.1949 206.9198 15.57261089 22464
BATSU-CS1 (IRAZU)       
1 43468U 98067NR  18275.80482441  .00018928  00000-0  24926-3 0  9993
2 43468  51.6388 199.5660 0001449 108.8529 251.2620 15.58474157122454
CUBERRT                 
1 43546U 98067NU  18275.78848443  .00021200  00000-0  30444-3 0  9994
2 43546  51.6387 201.6990 0005152 231.4013 128.6518 15.56046921 12573
TEMPEST-D               
1 43547U 98067NV  18275.80127183  .00006523  00000-0  10131-3 0  9991
2 43547  51.6387 201.7837 0005251 234.6553 125.3947 15.55307528 12256
RAINCUBE                
1 43548U 98067NW  18275.86068249  .00010223  00000-0  15223-3 0  9994
2 43548  51.6387 201.4307 0005051 241.4330 118.6154 15.55751819 12715
HALOSAT                 
1 43549U 98067NX  18275.28285570  .00012934  00000-0  19094-3 0  9990
2 43549  51.6387 204.3218 0005109 241.1225 118.9254 15.55713660 12180
ENDUROSAT ONE           
1 43551U 98067NZ  18275.26536261  .00012792  00000-0  18571-3 0  9998
2 43551  51.6384 204.2050 0005431 249.2406 110.8004 15.56182855 12597
EQUISAT                 
1 43552U 98067PA  18275.26866356  .00010911  00000-0  16043-3 0  9993
2 43552  51.6385 204.2281 0005701 250.2102 109.8275 15.56013961 12555
AEROCUBE 12A            
1 43556U 18046C   18275.83727847  .00001807  00000-0  78258-4 0  9991
2 43556  51.6433 217.5430 0008126 223.3435 136.6906 15.27865208 11971
AEROCUBE 12B            
1 43557U 18046D   18275.44521854  .00001676  00000-0  73574-4 0  9999
2 43557  51.6432 219.4255 0008147 221.9486 138.0870 15.27837277 11869
UITMSAT-1               
1 43589U 98067PD  18275.23797663  .00011725  00000-0  17468-3 0  9990
2 43589  51.6384 204.7702 0004987 260.3861  99.6566 15.55571196  8288
MAYA-1                  
1 43590U 98067PE  18275.23701715  .00011697  00000-0  17410-3 0  9990
2 43590  51.6385 204.7641 0005073 261.4548  98.5868 15.55598687  8214
BHUTAN-1                
1 43591U 98067PF  18275.23574346  .00011924  00000-0  17708-3 0  9992
2 43591  51.6385 204.7557 0005165 262.8589  97.1815 15.55638174  8216
SIRIUSSAT-1             
1 43595U 98067PG  18275.25118526  .00010797  00000-0  16366-3 0  9998
2 43595  51.6386 204.8543 0003282 199.0200 161.0669 15.55198400  7395
SIRIUSSAT-2             
1 43596U 98067PH  18275.83374742  .00010645  00000-0  16219-3 0  9996
2 43596  51.6394 201.9987 0003837 207.5221 152.5736 15.55071347  7489
TANUSHA-3               
1 43597U 98067PJ  18275.44596474  .00012151  00000-0  18318-3 0  9998
2 43597  51.6374 203.9016 0003060 217.3407 142.7372 15.55212032  7425
SURFSAT                 
1 43614U 18070B   18275.52116160  .00002280  00000-0  64635-4 0  9999
2 43614  93.0246 256.5582 0014266 218.4913 141.5312 15.36249717  2604
CP-7 (DAVE)             
1 43615U 18070C   18275.52104238  .00002263  00000-0  64131-4 0  9995
2 43615  93.0239 256.5578 0014280 218.0767 141.9468 15.36259303  2609
ELFIN-B                 
1 43616U 18070D   18275.39013480 -.00000007  00000-0  00000-0 0  9995
2 43616  93.0210 256.4900 0016385 222.0465 137.9644 15.36310679  2587
ELFIN-A                 
1 43617U 18070E   18275.52021732 -.00000007  00000-0  00000+0 0  9999
2 43617  93.0244 256.5625 0016020 215.2162 144.8072 15.36333052  2609
